{
  "links" : {
    "next" : "https://api.nasa.gov/neo/rest/v1/feed?start_date=2005-11-23&end_date=2005-11-23&detailed=true&api_key=t0TVs3DtDT2H8Oy2Zy8m2eVrNsAVKAexjcZXUckd",
    "prev" : "https://api.nasa.gov/neo/rest/v1/feed?start_date=2005-11-21&end_date=2005-11-21&detailed=true&api_key=t0TVs3DtDT2H8Oy2Zy8m2eVrNsAVKAexjcZXUckd",
    "self" : "https://api.nasa.gov/neo/rest/v1/feed?start_date=2005-11-22&end_date=2005-11-22&detailed=true&api_key=t0TVs3DtDT2H8Oy2Zy8m2eVrNsAVKAexjcZXUckd"
  },
  "element_count" : 3,
  "near_earth_objects" : {
    "2005-11-22" : [ {
      "links" : {
        "self" : "https://api.nasa.gov/neo/rest/v1/neo/3299470?api_key=t0TVs3DtDT2H8Oy2Zy8m2eVrNsAVKAexjcZXUckd"
      },
      "neo_reference_id" : "3299470",
      "name" : "(2005 VZ3)",
      "nasa_jpl_url" : "http://ssd.jpl.nasa.gov/sbdb.cgi?sstr=3299470",
      "absolute_magnitude_h" : 20.7,
      "estimated_diameter" : {
        "kilometers" : {
          "estimated_diameter_min" : 0.1925550782,
          "estimated_diameter_max" : 0.4305662442
        },
        "meters" : {
          "estimated_diameter_min" : 192.5550781879,
          "estimated_diameter_max" : 430.566244241
        },
        "miles" : {
          "estimated_diameter_min" : 0.1196481415,
          "estimated_diameter_max" : 0.2675413778
        },
        "feet" : {
          "estimated_diameter_min" : 631.7424027221,
          "estimated_diameter_max" : 1412.6189567557
        }
      },
      "is_potentially_hazardous_asteroid" : false,
      "close_approach_data" : [ {
        "close_approach_date" : "2005-11-22",
        "epoch_date_close_approach" : 1132646400000,
        "relative_velocity" : {
          "kilometers_per_second" : "15.046614495",
          "kilometers_per_hour" : "54167.8121820342",
          "miles_per_hour" : "33657.7719638867"
        },
        "miss_distance" : {
          "astronomical" : "0.2794530419",
          "lunar" : "108.7072296143",
          "kilometers" : "41805580",
          "miles" : "25976784"
        },
        "orbiting_body" : "Earth"
      } ],
      "orbital_data" : {
        "orbit_id" : "11",
        "orbit_determination_date" : "2017-04-06 09:09:55",
        "orbit_uncertainty" : "6",
        "minimum_orbit_intersection" : ".23097",
        "jupiter_tisserand_invariant" : "3.407",
        "epoch_osculation" : "2458000.5",
        "eccentricity" : ".4790924875339032",
        "semi_major_axis" : "2.160722117317526",
        "inclination" : "27.98025296953713",
        "ascending_node_longitude" : "48.83794170817173",
        "orbital_period" : "1160.103676197147",
        "perihelion_distance" : "1.12553638326235",
        "perihelion_argument" : "46.24776704411858",
        "aphelion_distance" : "3.195907851372702",
        "perihelion_time" : "2458383.211482398709",
        "mean_anomaly" : "241.238085448389",
        "mean_motion" : ".3103170926757944",
        "equinox" : "J2000"
      }
    }, {
      "links" : {
        "self" : "https://api.nasa.gov/neo/rest/v1/neo/3304648?api_key=t0TVs3DtDT2H8Oy2Zy8m2eVrNsAVKAexjcZXUckd"
      },
      "neo_reference_id" : "3304648",
      "name" : "(2005 WF4)",
      "nasa_jpl_url" : "http://ssd.jpl.nasa.gov/sbdb.cgi?sstr=3304648",
      "absolute_magnitude_h" : 22.8,
      "estimated_diameter" : {
        "kilometers" : {
          "estimated_diameter_min" : 0.0732073989,
          "estimated_diameter_max" : 0.1636967205
        },
        "meters" : {
          "estimated_diameter_min" : 73.2073989347,
          "estimated_diameter_max" : 163.696720474
        },
        "miles" : {
          "estimated_diameter_min" : 0.0454889547,
          "estimated_diameter_max" : 0.1017163949
        },
        "feet" : {
          "estimated_diameter_min" : 240.181762721,
          "estimated_diameter_max" : 537.0627483999
        }
      },
      "is_potentially_hazardous_asteroid" : false,
      "close_approach_data" : [ {
        "close_approach_date" : "2005-11-22",
        "epoch_date_close_approach" : 1132646400000,
        "relative_velocity" : {
          "kilometers_per_second" : "8.3979624883",
          "kilometers_per_hour" : "30232.6649578328",
          "miles_per_hour" : "18785.4022900489"
        },
        "miss_distance" : {
          "astronomical" : "0.2071320147",
          "lunar" : "80.5743560791",
          "kilometers" : "30986508",
          "miles" : "19254124"
        },
        "orbiting_body" : "Earth"
      } ],
      "orbital_data" : {
        "orbit_id" : "8",
        "orbit_determination_date" : "2017-04-06 09:09:47",
        "orbit_uncertainty" : "7",
        "minimum_orbit_intersection" : ".182792",
        "jupiter_tisserand_invariant" : "4.454",
        "epoch_osculation" : "2458000.5",
        "eccentricity" : ".232953750046669",
        "semi_major_axis" : "1.509754838846414",
        "inclination" : "15.96342192102176",
        "ascending_node_longitude" : "58.37313083626794",
        "orbital_period" : "677.5760896802533",
        "perihelion_distance" : "1.158051787486037",
        "perihelion_argument" : "21.64221231902673",
        "aphelion_distance" : "1.86145789020679",
        "perihelion_time" : "2457790.172327911097",
        "mean_anomaly" : "111.7482790570962",
        "mean_motion" : ".5313056429867282",
        "equinox" : "J2000"
      }
    }, {
      "links" : {
        "self" : "https://api.nasa.gov/neo/rest/v1/neo/2322756?api_key=t0TVs3DtDT2H8Oy2Zy8m2eVrNsAVKAexjcZXUckd"
      },
      "neo_reference_id" : "2322756",
      "name" : "322756 (2001 CK32)",
      "nasa_jpl_url" : "http://ssd.jpl.nasa.gov/sbdb.cgi?sstr=2322756",
      "absolute_magnitude_h" : 19.0,
      "estimated_diameter" : {
        "kilometers" : {
          "estimated_diameter_min" : 0.4212646106,
          "estimated_diameter_max" : 0.9419763057
        },
        "meters" : {
          "estimated_diameter_min" : 421.2646105562,
          "estimated_diameter_max" : 941.9763057186
        },
        "miles" : {
          "estimated_diameter_min" : 0.2617616123,
          "estimated_diameter_max" : 0.5853167591
        },
        "feet" : {
          "estimated_diameter_min" : 1382.1017848971,
          "estimated_diameter_max" : 3090.4735428537
        }
      },
      "is_potentially_hazardous_asteroid" : false,
      "close_approach_data" : [ {
        "close_approach_date" : "2005-11-22",
        "epoch_date_close_approach" : 1132646400000,
        "relative_velocity" : {
          "kilometers_per_second" : "10.8199382624",
          "kilometers_per_hour" : "38951.7777444985",
          "miles_per_hour" : "24203.1198990747"
        },
        "miss_distance" : {
          "astronomical" : "0.4282836306",
          "lunar" : "166.6023254395",
          "kilometers" : "64070320",
          "miles" : "39811452"
        },
        "orbiting_body" : "Earth"
      } ],
      "orbital_data" : {
        "orbit_id" : "39",
        "orbit_determination_date" : "2017-04-23 06:19:36",
        "orbit_uncertainty" : "0",
        "minimum_orbit_intersection" : ".0761733",
        "jupiter_tisserand_invariant" : "7.858",
        "epoch_osculation" : "2458000.5",
        "eccentricity" : ".3825529705450617",
        "semi_major_axis" : ".7252225269692176",
        "inclination" : "8.130289343745979",
        "ascending_node_longitude" : "109.4300345097225",
        "orbital_period" : "225.5824740897019",
        "perihelion_distance" : ".4477864949709474",
        "perihelion_argument" : "234.113856643077",
        "aphelion_distance" : "1.002658558967488",
        "perihelion_time" : "2457953.297112845186",
        "mean_anomaly" : "75.32960813691552",
        "mean_motion" : "1.595868657140658",
        "equinox" : "J2000"
      }
    } ]
  }
}